[
    {
        "Altitude(m)": 554405.4826607468,
        "Argument of Periapsis(deg)": 0.0,
        "Eccentricity": 0.0,
        "Inclination(deg)": 53.0,
        "Latitude(deg)": 25.652397481537886,
        "Longitude(deg)": 71.12519112180658,
        "Mean Anomaly(deg)": 32.727299999999985,
        "RAAN(deg)": 150.0,
        "Satellite Name": "Starlink Shell 1 662",
        "Satellite Number": 662,
        "Semi-Major Axis(m)": 6931778.249405717,
        "Time(s)": 0
    },
    {
        "Altitude(m)": 554467.1639821635,
        "Argument of Periapsis(deg)": 0.00034857847951123687,
        "Eccentricity": 0.0,
        "Inclination(deg)": 53.0,
        "Latitude(deg)": 26.121126700178937,
        "Longitude(deg)": 71.54881073284021,
        "Mean Anomaly(deg)": 33.354131203556705,
        "RAAN(deg)": 149.99948122992254,
        "Satellite Name": "Starlink Shell 1 662",
        "Satellite Number": 662,
        "Semi-Major Axis(m)": 6931778.249405717,
        "Time(s)": 10
    },
    {
        "Altitude(m)": 554530.3449957703,
        "Argument of Periapsis(deg)": 0.0006971569590224737,
        "Eccentricity": 0.0,
        "Inclination(deg)": 53.0,
        "Latitude(deg)": 26.588315015443463,
        "Longitude(deg)": 71.97614602266547,
        "Mean Anomaly(deg)": 33.9809624071134,
        "RAAN(deg)": 149.99896245984505,
        "Satellite Name": "Starlink Shell 1 662",
        "Satellite Number": 662,
        "Semi-Major Axis(m)": 6931778.249405717,
        "Time(s)": 20
    },
    {
        "Altitude(m)": 554594.9755645256,
        "Argument of Periapsis(deg)": 0.0010457354385337105,
        "Eccentricity": 0.0,
        "Inclination(deg)": 53.0,
        "Latitude(deg)": 27.053918567689465,
        "Longitude(deg)": 72.40729165030633,
        "Mean Anomaly(deg)": 34.60779361067015,
        "RAAN(deg)": 149.9984436897676,
        "Satellite Name": "Starlink Shell 1 662",
        "Satellite Number": 662,
        "Semi-Major Axis(m)": 6931778.249405717,
        "Time(s)": 30
    },
    {
        "Altitude(m)": 554661.005005325,
        "Argument of Periapsis(deg)": 0.0013943139180449475,
        "Eccentricity": 0.0,
        "Inclination(deg)": 53.0,
        "Latitude(deg)": 27.517892553001197,
        "Longitude(deg)": 72.84234408890853,
        "Mean Anomaly(deg)": 35.23462481422687,
        "RAAN(deg)": 149.99792491969012,
        "Satellite Name": "Starlink Shell 1 662",
        "Satellite Number": 662,
        "Semi-Major Axis(m)": 6931778.249405717,
        "Time(s)": 40
    },
    {
        "Altitude(m)": 554728.3821160952,
        "Argument of Periapsis(deg)": 0.0017428923975561844,
        "Eccentricity": 0.0,
        "Inclination(deg)": 53.0,
        "Latitude(deg)": 27.980191194498893,
        "Longitude(deg)": 73.28140062412993,
        "Mean Anomaly(deg)": 35.86145601778357,
        "RAAN(deg)": 149.99740614961263,
        "Satellite Name": "Starlink Shell 1 662",
        "Satellite Number": 662,
        "Semi-Major Axis(m)": 6931778.249405717,
        "Time(s)": 50
    },
    {
        "Altitude(m)": 554797.0552031508,
        "Argument of Periapsis(deg)": 0.002091470877067421,
        "Eccentricity": 0.0,
        "Inclination(deg)": 53.0,
        "Latitude(deg)": 28.440767713148976,
        "Longitude(deg)": 73.72455986298316,
        "Mean Anomaly(deg)": 36.488287221340286,
        "RAAN(deg)": 149.99688737953517,
        "Satellite Name": "Starlink Shell 1 662",
        "Satellite Number": 662,
        "Semi-Major Axis(m)": 6931778.249405717,
        "Time(s)": 60
    },
    {
        "Altitude(m)": 554866.972108687,
        "Argument of Periapsis(deg)": 0.0024400493565786582,
        "Eccentricity": 0.0,
        "Inclination(deg)": 53.0,
        "Latitude(deg)": 28.899574298088297,
        "Longitude(deg)": 74.17192224003617,
        "Mean Anomaly(deg)": 37.115118424896984,
        "RAAN(deg)": 149.9963686094577,
        "Satellite Name": "Starlink Shell 1 662",
        "Satellite Number": 662,
        "Semi-Major Axis(m)": 6931778.249405717,
        "Time(s)": 70
    },
    {
        "Altitude(m)": 554938.0802385431,
        "Argument of Periapsis(deg)": 0.002788627836089895,
        "Eccentricity": 0.0,
        "Inclination(deg)": 53.0,
        "Latitude(deg)": 29.356562076477896,
        "Longitude(deg)": 74.62358900786175,
        "Mean Anomaly(deg)": 37.74194962845373,
        "RAAN(deg)": 149.9958498393802,
        "Satellite Name": "Starlink Shell 1 662",
        "Satellite Number": 662,
        "Semi-Major Axis(m)": 6931778.249405717,
        "Time(s)": 80
    },
    {
        "Altitude(m)": 555010.3265900695,
        "Argument of Periapsis(deg)": 0.0031372063156011316,
        "Eccentricity": 0.0,
        "Inclination(deg)": 53.0,
        "Latitude(deg)": 29.811681082909125,
        "Longitude(deg)": 75.07966273723218,
        "Mean Anomaly(deg)": 38.368780832010444,
        "RAAN(deg)": 149.99533106930275,
        "Satellite Name": "Starlink Shell 1 662",
        "Satellite Number": 662,
        "Semi-Major Axis(m)": 6931778.249405717,
        "Time(s)": 90
    },
    {
        "Altitude(m)": 555083.657780188,
        "Argument of Periapsis(deg)": 0.0034857847951123688,
        "Eccentricity": 0.0,
        "Inclination(deg)": 53.0,
        "Latitude(deg)": 30.264880228385646,
        "Longitude(deg)": 75.54024781391958,
        "Mean Anomaly(deg)": 38.99561203556715,
        "RAAN(deg)": 149.9948122992253,
        "Satellite Name": "Starlink Shell 1 662",
        "Satellite Number": 662,
        "Semi-Major Axis(m)": 6931778.249405717,
        "Time(s)": 100
    },
    {
        "Altitude(m)": 555158.0200735824,
        "Argument of Periapsis(deg)": 0.003834363274623606,
        "Eccentricity": 0.0,
        "Inclination(deg)": 53.0,
        "Latitude(deg)": 30.716107268908416,
        "Longitude(deg)": 76.00544941894113,
        "Mean Anomaly(deg)": 39.62244323912387,
        "RAAN(deg)": 149.9942935291478,
        "Satellite Name": "Starlink Shell 1 662",
        "Satellite Number": 662,
        "Semi-Major Axis(m)": 6931778.249405717,
        "Time(s)": 110
    },
    {
        "Altitude(m)": 555233.3594110406,
        "Argument of Periapsis(deg)": 0.004182941754134842,
        "Eccentricity": 0.0,
        "Inclination(deg)": 53.0,
        "Latitude(deg)": 31.165308773698364,
        "Longitude(deg)": 76.47537401769885,
        "Mean Anomaly(deg)": 40.24927444268056,
        "RAAN(deg)": 149.99377475907033,
        "Satellite Name": "Starlink Shell 1 662",
        "Satellite Number": 662,
        "Semi-Major Axis(m)": 6931778.249405717,
        "Time(s)": 120
    },
    {
        "Altitude(m)": 555309.6214378815,
        "Argument of Periapsis(deg)": 0.004531520233646079,
        "Eccentricity": 0.0,
        "Inclination(deg)": 53.0,
        "Latitude(deg)": 31.612430093094193,
        "Longitude(deg)": 76.95012984481811,
        "Mean Anomaly(deg)": 40.876105646237306,
        "RAAN(deg)": 149.99325598899287,
        "Satellite Name": "Starlink Shell 1 662",
        "Satellite Number": 662,
        "Semi-Major Axis(m)": 6931778.249405717,
        "Time(s)": 130
    },
    {
        "Altitude(m)": 555386.7515325012,
        "Argument of Periapsis(deg)": 0.0048800987131573164,
        "Eccentricity": 0.0,
        "Inclination(deg)": 53.0,
        "Latitude(deg)": 32.05741532616628,
        "Longitude(deg)": 77.42982587147219,
        "Mean Anomaly(deg)": 41.502936849794025,
        "RAAN(deg)": 149.99273721891538,
        "Satellite Name": "Starlink Shell 1 662",
        "Satellite Number": 662,
        "Semi-Major Axis(m)": 6931778.249405717,
        "Time(s)": 140
    },
    {
        "Altitude(m)": 555464.6948350164,
        "Argument of Periapsis(deg)": 0.005228677192668553,
        "Eccentricity": 0.0,
        "Inclination(deg)": 53.0,
        "Latitude(deg)": 32.50020728809809,
        "Longitude(deg)": 77.9145722805858,
        "Mean Anomaly(deg)": 42.12976805335072,
        "RAAN(deg)": 149.99221844883792,
        "Satellite Name": "Starlink Shell 1 662",
        "Satellite Number": 662,
        "Semi-Major Axis(m)": 6931778.249405717,
        "Time(s)": 150
    },
    {
        "Altitude(m)": 555543.3962759458,
        "Argument of Periapsis(deg)": 0.00557725567217979,
        "Eccentricity": 0.0,
        "Inclination(deg)": 53.0,
        "Latitude(deg)": 32.94074747738829,
        "Longitude(deg)": 78.40448093666436,
        "Mean Anomaly(deg)": 42.75659925690742,
        "RAAN(deg)": 149.99169967876045,
        "Satellite Name": "Starlink Shell 1 662",
        "Satellite Number": 662,
        "Semi-Major Axis(m)": 6931778.249405717,
        "Time(s)": 160
    },
    {
        "Altitude(m)": 555622.8006049966,
        "Argument of Periapsis(deg)": 0.0059258341516910265,
        "Eccentricity": 0.0,
        "Inclination(deg)": 53.0,
        "Latitude(deg)": 33.37897604293395,
        "Longitude(deg)": 78.89966433697757,
        "Mean Anomaly(deg)": 43.38343046046414,
        "RAAN(deg)": 149.99118090868296,
        "Satellite Name": "Starlink Shell 1 662",
        "Satellite Number": 662,
        "Semi-Major Axis(m)": 6931778.249405717,
        "Time(s)": 170
    },
    {
        "Altitude(m)": 555702.8524198405,
        "Argument of Periapsis(deg)": 0.006274412631202263,
        "Eccentricity": 0.0,
        "Inclination(deg)": 53.0,
        "Latitude(deg)": 33.81483175106495,
        "Longitude(deg)": 79.40023606942968,
        "Mean Anomaly(deg)": 44.01026166402087,
        "RAAN(deg)": 149.9906621386055,
        "Satellite Name": "Starlink Shell 1 662",
        "Satellite Number": 662,
        "Semi-Major Axis(m)": 6931778.249405717,
        "Time(s)": 180
    }
]